[{"OBJECT_NAME":"AFR-1","OBJECT_ID":"2023-084AJ","EPOCH":"2026-03-09T23:02:07.499328","MEAN_MOTION":15.27543824,"ECCENTRICITY":0.00099838,"INCLINATION":97.6099,"RA_OF_ASC_NODE":203.4313,"ARG_OF_PERICENTER":334.9676,"MEAN_ANOMALY":25.1077,"EPHEMERIS_TYPE":0,"CLASSIFICATION_TYPE":"U","NORAD_CAT_ID":56964,"ELEMENT_SET_NO":999,"REV_AT_EPOCH":15207,"BSTAR":0.00024843733,"MEAN_MOTION_DOT":6.624e-5,"MEAN_MOTION_DDOT":0},{"OBJECT_NAME":"STARLINK-35815","OBJECT_ID":"2025-268W","EPOCH":"2026-03-08T03:31:45.128640","MEAN_MOTION":15.27625122,"ECCENTRICITY":0.00012658,"INCLINATION":42.9995,"RA_OF_ASC_NODE":355.788,"ARG_OF_PERICENTER":285.0834,"MEAN_ANOMALY":74.9878,"EPHEMERIS_TYPE":0,"CLASSIFICATION_TYPE":"U","NORAD_CAT_ID":66577,"ELEMENT_SET_NO":999,"REV_AT_EPOCH":1772,"BSTAR":0.0018510755,"MEAN_MOTION_DOT":0.000511,"MEAN_MOTION_DDOT":0}]
